NORAD_CAT_ID,OBJECT_NAME,OBJECT_TYPE,EPOCH,MEAN_MOTION,ECCENTRICITY,INCLINATION,RA_OF_ASC_NODE,ARG_OF_PERICENTER,MEAN_ANOMALY,BSTAR,MEAN_MOTION_DOT,MEAN_MOTION_DDOT,TLE_LINE0,TLE_LINE1,TLE_LINE2,SEMIMAJOR_AXIS,PERIOD,APOGEE,PERIGEE,DECAYED
51468.0,STARLINK-3174,PAYLOAD,2024-02-04 11:17:58,15.08852944,0.0001492,53.2155,109.8444,88.4321,271.6842,0.0002246,3.29e-05,0.0,0 STARLINK-3174,1 51468U 22010N   24035.47081151  .00003290  00000-0  22460-3 0  9991,2 51468  53.2155 109.8444 0001492  88.4321 271.6842 15.08852944111143,6917.841,95.437,540.738,538.674,0.0
51468.0,STARLINK-3174,PAYLOAD,2024-02-05 11:08:45,15.08843885,0.0001544,53.2159,105.382,94.3389,265.778,9.3036e-05,1.193e-05,0.0,0 STARLINK-3174,1 51468U 22010N   24036.46441559  .00001193  00000-0  93036-4 0  9991,2 51468  53.2159 105.3820 0001544  94.3389 265.7780 15.08843885112100,6917.869,95.437,540.802,538.665,0.0
51468.0,STARLINK-3174,PAYLOAD,2024-02-06 10:59:33,15.08838721,0.0001633,53.2168,100.9213,101.0711,259.0465,-1.4697e-05,-5.22e-06,0.0,0 STARLINK-3174,1 51468U 22010N   24037.45802102 -.00000522  00000-0 -14697-4 0  9999,2 51468  53.2168 100.9213 0001633 101.0711 259.0465 15.08838721112256,6917.884,95.438,540.879,538.62,0.0
51468.0,STARLINK-3174,PAYLOAD,2024-02-07 12:25:42,15.08851605,0.000158,53.2163,96.1665,96.0038,264.1134,0.0003285,4.946e-05,0.0,0 STARLINK-3174,1 51468U 22010N   24038.51785769  .00004946  00000-0  32850-3 0  9998,2 51468  53.2163  96.1665 0001580  96.0038 264.1134 15.08851605112418,6917.845,95.437,540.803,538.617,0.0
51468.0,STARLINK-3174,PAYLOAD,2024-02-07 20:22:37,15.08864733,0.0001528,53.2164,94.6792,92.3308,267.7859,0.00056041,8.648e-05,0.0,0 STARLINK-3174,1 51468U 22010N   24038.84905046  .00008648  00000-0  56041-3 0  9997,2 51468  53.2164  94.6792 0001528  92.3308 267.7859 15.08864733111658,6917.805,95.436,540.727,538.613,0.0
51468.0,STARLINK-3174,PAYLOAD,2024-02-08 10:40:49,15.09305584,0.0001415,53.216,92.0021,114.1056,246.0085,0.0097038,0.00159694,0.0,0 STARLINK-3174,1 51468U 22010N   24039.44501443  .00159694  00000-0  97038-2 0  9995,2 51468  53.2160  92.0021 0001415 114.1056 246.0085 15.09305584112555,6916.458,95.408,539.301,537.344,0.0
51468.0,STARLINK-3174,PAYLOAD,2024-02-08 18:37:28,15.09573513,0.0001689,53.2158,90.5139,128.1522,231.9623,0.012532,0.00209309,0.0,0 STARLINK-3174,1 51468U 22010N   24039.77602288  .00209309  00000-0  12532-1 0  9994,2 51468  53.2158  90.5139 0001689 128.1522 231.9623 15.09573513112607,6915.639,95.391,538.672,536.336,0.0
51468.0,STARLINK-3174,PAYLOAD,2024-02-09 02:34:02,15.09827755,0.0001649,53.2156,89.0248,95.5563,264.5617,0.013331,0.00224722,0.0,0 STARLINK-3174,1 51468U 22010N   24040.10697794  .00224722  00000-0  13331-1 0  9993,2 51468  53.2156  89.0248 0001649  95.5563 264.5617 15.09827755112657,6914.863,95.375,537.868,535.588,0.0
51468.0,STARLINK-3174,PAYLOAD,2024-02-09 14:00:01,15.10468457,0.0001488,53.2146,86.8819,99.4372,332.4451,0.00022378,3.434e-05,0.0,0 STARLINK-3174,1 51468U 22010N   24040.58334491  .00003434  00000-0  22378-3 0  9995,2 51468  53.2146  86.8819 0001488  99.4372 332.4451 15.10468457112728,6912.907,95.335,535.801,533.744,0.0
51468.0,STARLINK-3174,PAYLOAD,2024-02-10 14:00:01,15.1042778,0.0001579,53.2141,82.3809,82.4981,30.041,0.0032461,0.00054087,0.0,0 STARLINK-3174,1 51468U 22010N   24041.58334491  .00054087  00000-0  32461-2 0  9999,2 51468  53.2141  82.3809 0001579  82.4981  30.0410 15.10427780112878,6913.031,95.337,535.988,533.805,0.0
51468.0,STARLINK-3174,PAYLOAD,2024-02-10 22:00:01,15.10439733,0.0001559,53.2141,80.8787,88.9392,37.1914,0.0032028,0.00053374,0.0,0 STARLINK-3174,1 51468U 22010N   24041.91668981  .00053374  00000-0  32028-2 0  9997,2 51468  53.2141  80.8787 0001559  88.9392  37.1914 15.10439733  5724,6912.995,95.336,535.938,533.782,0.0
51468.0,STARLINK-3174,PAYLOAD,2024-02-11 06:00:00,15.10491932,0.0001687,53.2141,79.3791,87.2501,52.352,-0.00020278,-3.668e-05,0.0,0 STARLINK-3174,1 51468U 22010N   24042.25001157 -.00003668  00000-0 -20278-3 0  9999,2 51468  53.2141  79.3791 0001687  87.2501  52.3520 15.10491932112975,6912.836,95.333,535.867,533.535,0.0
51468.0,STARLINK-3174,PAYLOAD,2024-02-11 14:00:01,15.10534273,0.0001603,53.214,77.8796,79.0943,74.0806,-0.0052733,-0.00087161,0.0,0 STARLINK-3174,1 51468U 22010N   24042.58334491 -.00087161  00000-0 -52733-2 0  9995,2 51468  53.2140  77.8796 0001603  79.0943  74.0806 15.10534273  5828,6912.707,95.331,535.68,533.463,0.0
51468.0,STARLINK-3174,PAYLOAD,2024-02-11 22:00:01,15.10474719,0.0001357,53.2142,76.3773,87.1721,79.6826,-0.026024,-0.00409577,0.0,0 STARLINK-3174,1 51468U 22010N   24042.91668981 -.00409577  00000-0 -26024-1 0  9998,2 51468  53.2142  76.3773 0001357  87.1721  79.6826 15.10474719113077,6912.888,95.334,535.691,533.815,0.0
51468.0,STARLINK-3174,PAYLOAD,2024-02-12 11:33:37,15.10209296,0.0001837,53.2161,73.8382,72.4853,287.6341,-0.004913,-0.00080576,0.0,0 STARLINK-3174,1 51468U 22010N   24043.48168761 -.00080576  00000-0 -49130-2 0  9990,2 51468  53.2161  73.8382 0001837  72.4853 287.6341 15.10209296113161,6913.698,95.351,536.833,534.293,0.0
51468.0,STARLINK-3174,PAYLOAD,2024-02-12 13:08:55,15.1017616,0.0003105,53.2159,73.5286,150.743,209.3737,-0.0054105,-0.00088536,0.0,0 STARLINK-3174,1 51468U 22010N   24043.54787011 -.00088536  00000-0 -54105-2 0  9994,2 51468  53.2159  73.5286 0003105 150.7430 209.3737 15.10176160112363,6913.799,95.353,537.811,533.518,0.0
51468.0,STARLINK-3174,PAYLOAD,2024-02-13 03:26:54,15.09841932,0.0002328,53.2163,70.8648,100.6157,259.5098,-0.0081691,-0.0013151,0.0,0 STARLINK-3174,1 51468U 22010N   24044.14368897 -.00131510  00000-0 -81691-2 0  9999,2 51468  53.2163  70.8648 0002328 100.6157 259.5098 15.09841932113267,6914.82,95.374,538.294,535.075,0.0
51468.0,STARLINK-3174,PAYLOAD,2024-02-13 11:23:45,15.09447567,0.0001447,53.2156,69.3753,83.3733,276.7424,-0.012688,-0.0019997,0.0,0 STARLINK-3174,1 51468U 22010N   24044.47483684 -.00199970  00000-0 -12688-1 0  9990,2 51468  53.2156  69.3753 0001447  83.3733 276.7424 15.09447567113313,6916.024,95.399,538.89,536.888,0.0
51468.0,STARLINK-3174,PAYLOAD,2024-02-13 12:59:10,15.09399647,0.000149,53.2163,69.075,94.8481,265.2682,-0.012767,-0.00200922,0.0,0 STARLINK-3174,1 51468U 22010N   24044.54109311 -.00200922  00000-0 -12767-1 0  9998,2 51468  53.2163  69.0750 0001490  94.8481 265.2682 15.09399647112515,6916.17,95.402,539.066,537.005,0.0
51468.0,STARLINK-3174,PAYLOAD,2024-02-13 22:00:00,15.08790066,0.0001528,53.2154,67.3879,94.1916,147.3109,0.0049642,0.00079501,0.0,0 STARLINK-3174,1 51468U 22010N   24044.91667824  .00079501  00000-0  49642-2 0  9995,2 51468  53.2154  67.3879 0001528  94.1916 147.3109 15.08790066  5778,6918.033,95.441,540.955,538.841,0.0
51468.0,STARLINK-3174,PAYLOAD,2024-02-14 06:00:00,15.08834211,0.0001568,53.2157,65.8928,90.2618,162.7776,-0.00076564,-0.00012451,0.0,0 STARLINK-3174,1 51468U 22010N   24045.25001157 -.00012451  00000-0 -76564-3 0  9991,2 51468  53.2157  65.8928 0001568  90.2618 162.7776 15.08834211113423,6917.898,95.438,540.848,538.678,0.0
51468.0,STARLINK-3174,PAYLOAD,2024-02-14 14:00:01,15.08818308,0.0001565,53.2156,64.3968,81.7469,182.882,0.0020445,0.00032381,0.0,0 STARLINK-3174,1 51468U 22010N   24045.58334491  .00032381  00000-0  20445-2 0  9995,2 51468  53.2156  64.3968 0001565  81.7469 182.8820 15.08818308  5675,6917.947,95.439,540.894,538.729,0.0
51468.0,STARLINK-3174,PAYLOAD,2024-02-14 22:00:01,15.08811589,0.0001541,53.216,62.8987,91.0549,185.2217,0.0044488,0.00071175,0.0,0 STARLINK-3174,1 51468U 22010N   24045.91668981  .00071175  00000-0  44488-2 0  9993,2 51468  53.2160  62.8987 0001541  91.0549 185.2217 15.08811589113526,6917.967,95.439,540.898,538.766,0.0
51468.0,STARLINK-3174,PAYLOAD,2024-02-15 14:00:01,15.08827818,0.0001387,53.2159,59.9075,83.2773,216.1411,0.00071226,0.00011062,0.0,0 STARLINK-3174,1 51468U 22010N   24046.58334491  .00011062  00000-0  71226-3 0  9993,2 51468  53.2159  59.9075 0001387  83.2773 216.1411 15.08827818113633,6917.918,95.438,540.742,538.823,0.0
51468.0,STARLINK-3174,PAYLOAD,2024-02-15 22:00:00,15.08810544,0.0001357,53.2161,58.4097,95.2688,215.7386,0.0045123,0.00072203,0.0,0 STARLINK-3174,1 51468U 22010N   24046.91667824  .00072203  00000-0  45123-2 0  9999,2 51468  53.2161  58.4097 0001357  95.2688 215.7386 15.08810544  5813,6917.97,95.439,540.774,538.897,0.0
51468.0,STARLINK-3174,PAYLOAD,2024-02-16 14:00:01,15.08829659,0.0001389,53.2158,55.4184,78.6905,255.5233,-0.00011698,-2.149e-05,0.0,0 STARLINK-3174,1 51468U 22010N   24047.58334491 -.00002149  00000-0 -11698-3 0  9999,2 51468  53.2158  55.4184 0001389  78.6905 255.5233 15.08829659  5860,6917.912,95.438,540.738,538.816,0.0
51468.0,STARLINK-3174,PAYLOAD,2024-02-16 22:00:00,15.08806281,0.0001399,53.2159,53.9207,89.3487,256.4511,0.0045697,0.00073126,0.0,0 STARLINK-3174,1 51468U 22010N   24047.91667824  .00073126  00000-0  45697-2 0  9991,2 51468  53.2159  53.9207 0001399  89.3487 256.4511 15.08806281113837,6917.983,95.44,540.816,538.881,0.0
51468.0,STARLINK-3174,PAYLOAD,2024-02-17 04:25:21,15.08839389,0.0001696,53.2178,52.7247,108.8836,251.234,2.8126e-05,1.6e-06,0.0,0 STARLINK-3174,1 51468U 22010N   24048.18427531  .00000160  00000-0  28126-4 0  9998,2 51468  53.2178  52.7247 0001696 108.8836 251.2340 15.08839389113876,6917.882,95.438,540.921,538.574,0.0
51468.0,STARLINK-3174,PAYLOAD,2024-02-17 10:46:53,15.08847446,0.0001596,53.2167,51.5341,104.3982,255.7187,0.00016954,2.412e-05,0.0,0 STARLINK-3174,1 51468U 22010N   24048.44923274  .00002412  00000-0  16954-3 0  9999,2 51468  53.2167  51.5341 0001596 104.3982 255.7187 15.08847446113105,6917.858,95.437,540.827,538.619,0.0
51468.0,STARLINK-3174,PAYLOAD,2024-02-17 17:08:26,15.08841513,0.0001324,53.2154,50.3402,91.1765,268.9379,5.7883e-05,6.33e-06,0.0,0 STARLINK-3174,1 51468U 22010N   24048.71419488  .00000633  00000-0  57883-4 0  9996,2 51468  53.2154  50.3402 0001324  91.1765 268.9379 15.08841513113149,6917.876,95.437,540.657,538.825,0.0
